[{"OBJECT_NAME":"GAOFEN-1 03","OBJECT_ID":"2018-031B","EPOCH":"2026-03-09T23:48:52.763904","MEAN_MOTION":14.76478861,"ECCENTRICITY":0.00036922,"INCLINATION":98.0633,"RA_OF_ASC_NODE":131.613,"ARG_OF_PERICENTER":51.6467,"MEAN_ANOMALY":308.5074,"EPHEMERIS_TYPE":0,"CLASSIFICATION_TYPE":"U","NORAD_CAT_ID":43260,"ELEMENT_SET_NO":999,"REV_AT_EPOCH":42805,"BSTAR":0.00016454166,"MEAN_MOTION_DOT":1.094e-5,"MEAN_MOTION_DDOT":0},{"OBJECT_NAME":"CZ-4C R\/B","OBJECT_ID":"2022-035B","EPOCH":"2026-03-09T17:12:26.005824","MEAN_MOTION":14.7427579,"ECCENTRICITY":0.01045469,"INCLINATION":98.2415,"RA_OF_ASC_NODE":134.9721,"ARG_OF_PERICENTER":190.6082,"MEAN_ANOMALY":169.2921,"EPHEMERIS_TYPE":0,"CLASSIFICATION_TYPE":"U","NORAD_CAT_ID":52201,"ELEMENT_SET_NO":999,"REV_AT_EPOCH":21079,"BSTAR":0.0001664192,"MEAN_MOTION_DOT":1.142e-5,"MEAN_MOTION_DDOT":0}]
